IRIDIUM 63              
1 25286U 98021B   25284.01338795  .00000606  00000+0  19933-3 0  9999
2 25286  86.4016  33.5147 0001923  94.0993 266.0424 14.36654835440470
IRIDIUM 69              
1 25319U 98026A   25283.60068079  .00000818  00000+0  24797-3 0  9999
2 25319  86.3985  46.6124 0003199  44.5933 315.5524 14.41101086439685
IRIDIUM 71              
1 25320U 98026B   25284.07898641  .00000441  00000+0  13045-3 0  9995
2 25320  86.3994  41.0874 0004124  78.3979 281.7683 14.41256653440281
IRIDIUM 73              
1 25344U 98032C   25284.20115213  .00000762  00000+0  18414-3 0  9991
2 25344  86.4465 357.5553 0001882  77.2959 282.8457 14.51872873447393
IRIDIUM 82              
1 25467U 98051A   25284.07059931  .00052294  00000+0  12162-2 0  9997
2 25467  86.3644  52.4660 0072860 214.7279 144.9208 15.39301821441735
